[{"OBJECT_NAME":"STARLINK-4553","OBJECT_ID":"2022-101BC","EPOCH":"2026-03-04T18:06:26.392896","MEAN_MOTION":15.08839856,"ECCENTRICITY":0.0001303,"INCLINATION":53.2168,"RA_OF_ASC_NODE":76.0262,"ARG_OF_PERICENTER":86.2348,"MEAN_ANOMALY":273.8793,"EPHEMERIS_TYPE":0,"CLASSIFICATION_TYPE":"U","NORAD_CAT_ID":53577,"ELEMENT_SET_NO":999,"REV_AT_EPOCH":19652,"BSTAR":6.3798e-5,"MEAN_MOTION_DOT":7.28e-6,"MEAN_MOTION_DDOT":0},{"OBJECT_NAME":"STARLINK-4556","OBJECT_ID":"2022-101BD","EPOCH":"2026-03-04T17:50:31.348032","MEAN_MOTION":15.08837362,"ECCENTRICITY":0.0001371,"INCLINATION":53.2174,"RA_OF_ASC_NODE":75.9603,"ARG_OF_PERICENTER":86.3375,"MEAN_ANOMALY":273.7774,"EPHEMERIS_TYPE":0,"CLASSIFICATION_TYPE":"U","NORAD_CAT_ID":53578,"ELEMENT_SET_NO":999,"REV_AT_EPOCH":19570,"BSTAR":4.0031e-5,"MEAN_MOTION_DOT":3.49e-6,"MEAN_MOTION_DDOT":0},{"OBJECT_NAME":"STARLINK-4580","OBJECT_ID":"2022-101BE","EPOCH":"2026-03-04T17:45:13.122144","MEAN_MOTION":15.08837088,"ECCENTRICITY":0.0001313,"INCLINATION":53.217,"RA_OF_ASC_NODE":75.935,"ARG_OF_PERICENTER":88.3915,"MEAN_ANOMALY":271.7228,"EPHEMERIS_TYPE":0,"CLASSIFICATION_TYPE":"U","NORAD_CAT_ID":53579,"ELEMENT_SET_NO":999,"REV_AT_EPOCH":19570,"BSTAR":6.0702e-5,"MEAN_MOTION_DOT":6.78e-6,"MEAN_MOTION_DDOT":0},{"OBJECT_NAME":"STARLINK-4691","OBJECT_ID":"2022-104A","EPOCH":"2026-03-03T19:25:58.535328","MEAN_MOTION":15.08830543,"ECCENTRICITY":0.00011956,"INCLINATION":53.2167,"RA_OF_ASC_NODE":270.7675,"ARG_OF_PERICENTER":93.6528,"MEAN_ANOMALY":266.4601,"EPHEMERIS_TYPE":0,"CLASSIFICATION_TYPE":"U","NORAD_CAT_ID":53588,"ELEMENT_SET_NO":999,"REV_AT_EPOCH":19520,"BSTAR":0.00011450349,"MEAN_MOTION_DOT":1.534e-5,"MEAN_MOTION_DDOT":0},{"OBJECT_NAME":"STARLINK-4673","OBJECT_ID":"2022-104B","EPOCH":"2026-03-04T14:04:03.351360","MEAN_MOTION":15.08821105,"ECCENTRICITY":0.0001309,"INCLINATION":53.2167,"RA_OF_ASC_NODE":267.0806,"ARG_OF_PERICENTER":92.9565,"MEAN_ANOMALY":267.1577,"EPHEMERIS_TYPE":0,"CLASSIFICATION_TYPE":"U","NORAD_CAT_ID":53589,"ELEMENT_SET_NO":999,"REV_AT_EPOCH":19517,"BSTAR":0.00010087,"MEAN_MOTION_DOT":1.317e-5,"MEAN_MOTION_DDOT":0},{"OBJECT_NAME":"STARLINK-4689","OBJECT_ID":"2022-104C","EPOCH":"2026-03-04T14:25:16.794912","MEAN_MOTION":15.08835639,"ECCENTRICITY":0.0001247,"INCLINATION":53.2164,"RA_OF_ASC_NODE":267.1751,"ARG_OF_PERICENTER":90.1681,"MEAN_ANOMALY":269.9454,"EPHEMERIS_TYPE":0,"CLASSIFICATION_TYPE":"U","NORAD_CAT_ID":53590,"ELEMENT_SET_NO":999,"REV_AT_EPOCH":19519,"BSTAR":5.7098e-5,"MEAN_MOTION_DOT":6.21e-6,"MEAN_MOTION_DDOT":0},{"OBJECT_NAME":"STARLINK-4674","OBJECT_ID":"2022-104D","EPOCH":"2026-03-04T12:44:35.904768","MEAN_MOTION":15.0884471,"ECCENTRICITY":0.00014343,"INCLINATION":53.2174,"RA_OF_ASC_NODE":267.4493,"ARG_OF_PERICENTER":90.8778,"MEAN_ANOMALY":269.2379,"EPHEMERIS_TYPE":0,"CLASSIFICATION_TYPE":"U","NORAD_CAT_ID":53591,"ELEMENT_SET_NO":999,"REV_AT_EPOCH":19518,"BSTAR":8.1866488e-5,"MEAN_MOTION_DOT":1.015e-5,"MEAN_MOTION_DDOT":0},{"OBJECT_NAME":"STARLINK-4672","OBJECT_ID":"2022-104E","EPOCH":"2026-03-04T20:37:35.762016","MEAN_MOTION":15.08835179,"ECCENTRICITY":0.0001354,"INCLINATION":53.2167,"RA_OF_ASC_NODE":265.945,"ARG_OF_PERICENTER":83.5579,"MEAN_ANOMALY":276.5567,"EPHEMERIS_TYPE":0,"CLASSIFICATION_TYPE":"U","NORAD_CAT_ID":53592,"ELEMENT_SET_NO":999,"REV_AT_EPOCH":19521,"BSTAR":6.8235e-5,"MEAN_MOTION_DOT":7.98e-6,"MEAN_MOTION_DDOT":0},{"OBJECT_NAME":"STARLINK-4681","OBJECT_ID":"2022-104G","EPOCH":"2026-03-04T20:15:00.158112","MEAN_MOTION":15.08852887,"ECCENTRICITY":0.0001906,"INCLINATION":53.2142,"RA_OF_ASC_NODE":265.8493,"ARG_OF_PERICENTER":81.3817,"MEAN_ANOMALY":278.7391,"EPHEMERIS_TYPE":0,"CLASSIFICATION_TYPE":"U","NORAD_CAT_ID":53594,"ELEMENT_SET_NO":999,"REV_AT_EPOCH":19535,"BSTAR":0.00060744,"MEAN_MOTION_DOT":9.396e-5,"MEAN_MOTION_DDOT":0},{"OBJECT_NAME":"STARLINK-4684","OBJECT_ID":"2022-104H","EPOCH":"2026-03-04T20:20:17.148480","MEAN_MOTION":15.08842201,"ECCENTRICITY":0.0001502,"INCLINATION":53.2162,"RA_OF_ASC_NODE":265.8704,"ARG_OF_PERICENTER":93.3168,"MEAN_ANOMALY":266.7996,"EPHEMERIS_TYPE":0,"CLASSIFICATION_TYPE":"U","NORAD_CAT_ID":53595,"ELEMENT_SET_NO":999,"REV_AT_EPOCH":19521,"BSTAR":-5.4686e-6,"MEAN_MOTION_DOT":-3.75e-6,"MEAN_MOTION_DDOT":0},{"OBJECT_NAME":"STARLINK-4676","OBJECT_ID":"2022-104L","EPOCH":"2026-03-04T13:21:36.209376","MEAN_MOTION":15.08841598,"ECCENTRICITY":0.0001402,"INCLINATION":53.2166,"RA_OF_ASC_NODE":266.9057,"ARG_OF_PERICENTER":78.8863,"MEAN_ANOMALY":281.2286,"EPHEMERIS_TYPE":0,"CLASSIFICATION_TYPE":"U","NORAD_CAT_ID":53598,"ELEMENT_SET_NO":999,"REV_AT_EPOCH":19484,"BSTAR":9.0132e-5,"MEAN_MOTION_DOT":1.147e-5,"MEAN_MOTION_DDOT":0},{"OBJECT_NAME":"STARLINK-4677","OBJECT_ID":"2022-104N","EPOCH":"2026-03-04T13:17:47.789376","MEAN_MOTION":15.08840446,"ECCENTRICITY":0.0001282,"INCLINATION":53.2167,"RA_OF_ASC_NODE":267.5815,"ARG_OF_PERICENTER":87.63,"MEAN_ANOMALY":272.4839,"EPHEMERIS_TYPE":0,"CLASSIFICATION_TYPE":"U","NORAD_CAT_ID":53600,"ELEMENT_SET_NO":999,"REV_AT_EPOCH":19483,"BSTAR":8.7979e-5,"MEAN_MOTION_DOT":1.113e-5,"MEAN_MOTION_DDOT":0},{"OBJECT_NAME":"STARLINK-4675","OBJECT_ID":"2022-104P","EPOCH":"2026-03-04T19:59:04.109280","MEAN_MOTION":15.0884648,"ECCENTRICITY":0.0001116,"INCLINATION":53.2156,"RA_OF_ASC_NODE":265.7803,"ARG_OF_PERICENTER":95.893,"MEAN_ANOMALY":264.2189,"EPHEMERIS_TYPE":0,"CLASSIFICATION_TYPE":"U","NORAD_CAT_ID":53601,"ELEMENT_SET_NO":999,"REV_AT_EPOCH":19488,"BSTAR":7.2735e-5,"MEAN_MOTION_DOT":8.7e-6,"MEAN_MOTION_DDOT":0},{"OBJECT_NAME":"STARLINK-4648","OBJECT_ID":"2022-104Q","EPOCH":"2026-03-04T20:07:41.773152","MEAN_MOTION":15.08835379,"ECCENTRICITY":0.0001295,"INCLINATION":53.2162,"RA_OF_ASC_NODE":260.8367,"ARG_OF_PERICENTER":92.512,"MEAN_ANOMALY":267.602,"EPHEMERIS_TYPE":0,"CLASSIFICATION_TYPE":"U","NORAD_CAT_ID":53602,"ELEMENT_SET_NO":999,"REV_AT_EPOCH":19495,"BSTAR":4.8286e-6,"MEAN_MOTION_DOT":-2.11e-6,"MEAN_MOTION_DDOT":0},{"OBJECT_NAME":"STARLINK-4692","OBJECT_ID":"2022-104R","EPOCH":"2026-03-03T23:59:30.934176","MEAN_MOTION":15.08833815,"ECCENTRICITY":0.0001419,"INCLINATION":53.2174,"RA_OF_ASC_NODE":264.8385,"ARG_OF_PERICENTER":85.4501,"MEAN_ANOMALY":274.6653,"EPHEMERIS_TYPE":0,"CLASSIFICATION_TYPE":"U","NORAD_CAT_ID":53603,"ELEMENT_SET_NO":999,"REV_AT_EPOCH":19482,"BSTAR":3.0074149e-5,"MEAN_MOTION_DOT":1.91e-6,"MEAN_MOTION_DDOT":0},{"OBJECT_NAME":"STARLINK-4690","OBJECT_ID":"2022-104S","EPOCH":"2026-03-04T19:57:04.643136","MEAN_MOTION":15.08837445,"ECCENTRICITY":0.0001345,"INCLINATION":53.2164,"RA_OF_ASC_NODE":260.7893,"ARG_OF_PERICENTER":91.8555,"MEAN_ANOMALY":268.2591,"EPHEMERIS_TYPE":0,"CLASSIFICATION_TYPE":"U","NORAD_CAT_ID":53604,"ELEMENT_SET_NO":999,"REV_AT_EPOCH":19495,"BSTAR":2.004e-5,"MEAN_MOTION_DOT":3.1e-7,"MEAN_MOTION_DDOT":0},{"OBJECT_NAME":"STARLINK-4693","OBJECT_ID":"2022-104T","EPOCH":"2026-03-04T19:48:27.040608","MEAN_MOTION":15.08841114,"ECCENTRICITY":0.0001406,"INCLINATION":53.216,"RA_OF_ASC_NODE":265.7366,"ARG_OF_PERICENTER":88.7513,"MEAN_ANOMALY":271.364,"EPHEMERIS_TYPE":0,"CLASSIFICATION_TYPE":"U","NORAD_CAT_ID":53605,"ELEMENT_SET_NO":999,"REV_AT_EPOCH":19488,"BSTAR":4.2659e-5,"MEAN_MOTION_DOT":3.91e-6,"MEAN_MOTION_DDOT":0}]
