STARLINK-4553           
1 53577U 22101BC  26063.75447214  .00000728  00000+0  63798-4 0  9997
2 53577  53.2168  76.0262 0001303  86.2348 273.8793 15.08839856196520
STARLINK-4556           
1 53578U 22101BD  26063.74341838  .00000349  00000+0  40031-4 0  9996
2 53578  53.2174  75.9603 0001371  86.3375 273.7774 15.08837362195708
STARLINK-4580           
1 53579U 22101BE  26063.73973521  .00000678  00000+0  60702-4 0  9998
2 53579  53.2170  75.9350 0001313  88.3915 271.7228 15.08837088195709
STARLINK-4691           
1 53588U 22104A   26062.80970527  .00001534  00000+0  11450-3 0  9998
2 53588  53.2167 270.7675 0001195  93.6528 266.4601 15.08830543195207
STARLINK-4673           
1 53589U 22104B   26063.58614990  .00001317  00000+0  10087-3 0  9998
2 53589  53.2167 267.0806 0001309  92.9565 267.1577 15.08821105195173
STARLINK-4689           
1 53590U 22104C   26063.60088883  .00000621  00000+0  57098-4 0  9990
2 53590  53.2164 267.1751 0001247  90.1681 269.9454 15.08835639195195
STARLINK-4674           
1 53591U 22104D   26063.53097112  .00001015  00000+0  81866-4 0  9996
2 53591  53.2174 267.4493 0001434  90.8778 269.2379 15.08844710195183
STARLINK-4672           
1 53592U 22104E   26063.85944169  .00000798  00000+0  68235-4 0  9997
2 53592  53.2167 265.9450 0001354  83.5579 276.5567 15.08835179195214
STARLINK-4681           
1 53594U 22104G   26063.84375183  .00009396  00000+0  60744-3 0  9991
2 53594  53.2142 265.8493 0001906  81.3817 278.7391 15.08852887195358
STARLINK-4684           
1 53595U 22104H   26063.84742070 -.00000375  00000+0 -54686-5 0  9995
2 53595  53.2162 265.8704 0001502  93.3168 266.7996 15.08842201195212
STARLINK-4676           
1 53598U 22104L   26063.55666909  .00001147  00000+0  90132-4 0  9993
2 53598  53.2166 266.9057 0001402  78.8863 281.2286 15.08841598194841
STARLINK-4677           
1 53600U 22104N   26063.55402534  .00001113  00000+0  87979-4 0  9997
2 53600  53.2167 267.5815 0001282  87.6300 272.4839 15.08840446194831
STARLINK-4675           
1 53601U 22104P   26063.83268645  .00000870  00000+0  72735-4 0  9995
2 53601  53.2156 265.7803 0001116  95.8930 264.2189 15.08846480194889
STARLINK-4648           
1 53602U 22104Q   26063.83867793 -.00000211  00000+0  48286-5 0  9990
2 53602  53.2162 260.8367 0001295  92.5120 267.6020 15.08835379194955
STARLINK-4692           
1 53603U 22104R   26062.99966359  .00000191  00000+0  30074-4 0  9996
2 53603  53.2174 264.8385 0001419  85.4501 274.6653 15.08833815194824
STARLINK-4690           
1 53604U 22104S   26063.83130374  .00000031  00000+0  20040-4 0  9996
2 53604  53.2164 260.7893 0001345  91.8555 268.2591 15.08837445194958
STARLINK-4693           
1 53605U 22104T   26063.82531297  .00000391  00000+0  42659-4 0  9994
2 53605  53.2160 265.7366 0001406  88.7513 271.3640 15.08841114194882
